STARLINK-2557           
1 48299U 21036Z   26100.25001157  .00002612  00000+0  95930-4 0  9994
2 48299  53.1597 288.7631 0001210  84.9158 293.1726 15.31696111  5861
STARLINK-2538           
1 48300U 21036AA  26100.25903783  .00104591  00000+0  33906-2 0  9995
2 48300  53.1598 301.5420 0000887 109.3268 250.7830 15.31170248273060
STARLINK-2537           
1 48301U 21036AB  26100.26101120  .00000878  00000+0  41755-4 0  9998
2 48301  53.1584 304.2004 0001174  80.0572 280.0561 15.30203497273011
STARLINK-2530           
1 48303U 21036AD  26100.27097428  .00001392  00000+0  59129-4 0  9992
2 48303  53.1593 301.7438 0000903  91.5540 268.5564 15.30196796273058
STARLINK-2524           
1 48304U 21036AE  26099.89859921 -.00000298  00000+0 -10837-5 0  9992
2 48304  53.0542 311.5143 0001240  85.8520 274.2610 15.06394593272876
STARLINK-2519           
1 48305U 21036AF  26100.28200031  .00001041  00000+0  88767-4 0  9992
2 48305  53.0534 310.3724 0001055  90.5247 269.5863 15.06396060272927
STARLINK-2523           
1 48306U 21036AG  26100.28930609  .00000594  00000+0  58732-4 0  9995
2 48306  53.0537 309.7601 0001280  85.1491 274.9644 15.06400213272932
STARLINK-2517           
1 48309U 21036AK  26099.85237609  .00002436  00000+0  92036-4 0  9990
2 48309  53.1586 303.5883 0001162  90.3539 269.7596 15.31031264272992
STARLINK-2536           
1 48310U 21036AL  26100.25896312  .00013079  00000+0  45323-3 0  9992
2 48310  53.1592 304.5314 0001313 118.0350 242.0784 15.30178960273019
STARLINK-2534           
1 48311U 21036AM  26100.26468667  .00003353  00000+0  12528-3 0  9997
2 48311  53.1594 301.9695 0001197  91.4332 268.6806 15.30201478273053
STARLINK-2061           
1 48312U 21036AN  26099.84641862 -.00000332  00000+0  90580-6 0  9991
2 48312  53.1593 303.6822 0001238  78.7125 281.4015 15.30196975272990
STARLINK-2549           
1 48314U 21036AQ  26100.26625797  .00000387  00000+0  25213-4 0  9999
2 48314  53.1584 304.0488 0001529  93.1842 266.9334 15.30197468273019
STARLINK-2506           
1 48315U 21036AR  26099.99074458  .00001099  00000+0  92683-4 0  9995
2 48315  53.0544 311.1016 0001339  90.5888 269.5255 15.06396524272883
STARLINK-2507           
1 48316U 21036AS  26099.98705685  .00003429  00000+0  24906-3 0  9999
2 48316  53.0535 311.1185 0001384  93.7647 266.3500 15.06393268272889
STARLINK-2513           
1 48317U 21036AT  26100.26250597  .00002381  00000+0  92480-4 0  9990
2 48317  53.1597 301.5244 0001333  89.0974 271.0180 15.30201654273054
STARLINK-2509           
1 48318U 21036AU  26099.87231088  .00000308  00000+0  22514-4 0  9997
2 48318  53.1604 316.7024 0001131  81.5544 278.5585 15.30198189272805
STARLINK-2512           
1 48319U 21036AV  26099.87960554  .00001481  00000+0  62116-4 0  9990
2 48319  53.1599 316.1276 0001254  92.1172 267.9972 15.30197314272815
STARLINK-2029           
1 48320U 21036AW  26100.25001157 -.00018169  00000+0 -57491-3 0  9994
2 48320  53.1592 314.8625 0001142  85.8968 281.8872 15.31713064  5849
STARLINK-2457           
1 48321U 21036AX  26099.87328764  .00001319  00000+0  56645-4 0  9994
2 48321  53.1603 316.1636 0000998  81.7876 278.3238 15.30191059272814
STARLINK-2515           
1 48323U 21036AZ  26099.86591338  .00001221  00000+0  53359-4 0  9995
2 48323  53.1608 316.1957 0001321  89.9807 270.1345 15.30194714272812
STARLINK-2495           
1 48325U 21036BB  26099.99021752 -.00000708  00000+0 -11777-4 0  9998
2 48325  53.1624 315.6209 0001320 120.0440 240.0692 15.30192941272838
STARLINK-2498           
1 48326U 21036BC  26100.25001157 -.00020362  00000+0 -64590-3 0  9996
2 48326  53.1601 314.5190 0000959  96.6997 219.8977 15.31713459  5752
STARLINK-2502           
1 48327U 21036BD  26099.84863152  .00000446  00000+0  27771-4 0  9990
2 48327  53.1558 316.2489 0001331  77.7609 282.3540 15.29360863272817
STARLINK-2504           
1 48328U 21036BE  26100.17336492  .00129270  00000+0  42543-2 0  9991
2 48328  53.1609 314.7583 0001758  77.1803 282.9394 15.30555657272852
STARLINK-2510           
1 48329U 21036BF  26100.25001157 -.00031220  00000+0 -99815-3 0  9992
2 48329  53.1586 314.3959 0001198 108.2893 337.0189 15.31710706  5591
STARLINK-2501           
1 48330U 21036BG  26100.28842405  .00001758  00000+0  73243-4 0  9995
2 48330  53.1549 314.1406 0001302  73.1607 286.9537 15.29360141272885
STARLINK-2514           
1 48331U 21036BH  26100.02212198  .00155426  00000+0  51071-2 0  9993
2 48331  53.1570 315.3620 0003689  10.3050 349.8026 15.30474474272841
STARLINK-2518           
1 48333U 21036BK  26100.28730952  .00012146  00000+0  42155-3 0  9991
2 48333  53.1584 314.2427 0001267  89.2879 270.8267 15.30198282272889
STARLINK-2470           
1 48334U 21036BL  26100.28413742  .00001272  00000+0  55067-4 0  9992
2 48334  53.1610 314.2609 0001091  86.7835 273.3290 15.30207678272885
YAOGAN-34 01            
1 48340U 21037A   26100.26772672 -.00000046  00000+0  73391-4 0  9997
2 48340  63.4046 320.8498 0081691 357.0844   2.9695 13.45466769242868
STARLINK-2613           
1 48353U 21038A   26099.60539320  .00000465  00000+0  27820-4 0  9998
2 48353  53.1603 214.5225 0001450 122.1562 237.9579 15.30210642271818
STARLINK-2674           
1 48354U 21038B   26099.60962542  .00004588  00000+0  16695-3 0  9992
2 48354  53.1592 214.5817 0001318  97.8708 262.2442 15.30200236271814
STARLINK-2635           
1 48355U 21038C   26100.25001157  .00068714  00000+0  22083-2 0  9991
2 48355  53.1597 211.5229 0000822  77.3944 277.3970 15.31663084  5855
STARLINK-2637           
1 48356U 21038D   26099.59591670  .00005850  00000+0  20945-3 0  9998
2 48356  53.1584 214.5805 0000842  74.2326 285.8768 15.30202859271815
STARLINK-2636           
1 48357U 21038E   26100.30700467  .00001956  00000+0  78150-4 0  9992
2 48357  53.1615 211.2685 0000849  69.6052 290.5040 15.30195196271925
STARLINK-2624           
1 48358U 21038F   26100.25001157  .00058503  00000+0  18839-2 0  9993
2 48358  53.1600 211.5419 0001065  86.3831 319.8222 15.31671811  5656
STARLINK-2628           
1 48359U 21038G   26100.30384903  .00004392  00000+0  16033-3 0  9995
2 48359  53.1582 211.2954 0001260  64.6349 295.4783 15.30195017271910
STARLINK-2622           
1 48360U 21038H   26099.58222176  .00004456  00000+0  16247-3 0  9995
2 48360  53.1594 214.6537 0001071  89.1662 270.9462 15.30200418271801
STARLINK-2591           
1 48361U 21038J   26099.57589216  .00003792  00000+0  14014-3 0  9998
2 48361  53.1606 214.6562 0001486  97.8982 262.2187 15.30189620271804
STARLINK-2578           
1 48362U 21038K   26100.32059399  .00168272  00000+0  55044-2 0  9991
2 48362  53.1577 211.2205 0002359  98.7321 261.3947 15.30560675271926
STARLINK-2611           
1 48364U 21038M   26099.99618137  .00072557  00000+0  24234-2 0  9991
2 48364  53.1598 202.3914 0000352 181.6966 178.4033 15.30395629272028
STARLINK-2608           
1 48365U 21038N   26100.25001157  .00053052  00000+0  17103-2 0  9998
2 48365  53.1589 201.2722 0001150  80.5443 314.9675 15.31679026  5860
STARLINK-2643           
1 48367U 21038Q   26100.28223154  .00003437  00000+0  12812-3 0  9991
2 48367  53.1585 198.6320 0000906  62.4275 297.6818 15.30194067272094
STARLINK-2623           
1 48368U 21038R   26100.01627335  .00004023  00000+0  14789-3 0  9999
2 48368  53.1597 202.2746 0001082  78.1507 281.9615 15.30194803272022
STARLINK-2621           
1 48370U 21038T   26100.25001157  .00048134  00000+0  15540-2 0  9992
2 48370  53.1589 201.1718 0001081  88.1086 256.0152 15.31677494  5852
STARLINK-2589           
1 48371U 21038U   26099.98993826  .00002597  00000+0  99803-4 0  9992
2 48371  53.1602 202.3992 0001386  93.8502 266.2657 15.30195493272010
STARLINK-2609           
1 48373U 21038W   26100.01455244  .00054412  00000+0  18248-2 0  9993
2 48373  53.1595 199.9945 0001619  91.0749 269.0437 15.30395602272059
STARLINK-2604           
1 48374U 21038X   26099.97782298  .00125142  00000+0  40838-2 0  9997
2 48374  53.1592 202.4606 0001026 107.2838 252.8275 15.30849712272014
STARLINK-2603           
1 48375U 21038Y   26100.30282264  .00001485  00000+0  62262-4 0  9996
2 48375  53.1611 200.9563 0001158  88.0551 272.0582 15.30190116272063
STARLINK-2610           
1 48376U 21038Z   26100.29950063  .00019822  00000+0  67667-3 0  9991
2 48376  53.1606 200.9730 0001687  74.1613 285.9574 15.30340335272060
STARLINK-2499           
1 48377U 21038AA  26100.29334043  .00004801  00000+0  17413-3 0  9991
2 48377  53.1585 201.0061 0000978  78.5829 281.5282 15.30198190272063
STARLINK-2526           
1 48378U 21038AB  26099.57803367  .00010705  00000+0  37282-3 0  9996
2 48378  53.1580 204.3658 0000986  82.3688 277.7424 15.30219358271954
STARLINK-2612           
1 48379U 21038AC  26099.56065655  .00006595  00000+0  23449-3 0  9998
2 48379  53.1584 202.3532 0001088  71.5882 288.5237 15.30212194271984
STARLINK-2614           
1 48380U 21038AD  26099.56695365  .00011237  00000+0  39080-3 0  9994
2 48380  53.1582 202.1683 0001121  98.5243 261.5884 15.30210606271982
STARLINK-2630           
1 48381U 21038AE  26099.56538523  .00009758  00000+0  34103-3 0  9993
2 48381  53.1591 204.3703 0001072  83.2031 276.9092 15.30212370271959
STARLINK-2585           
1 48382U 21038AF  26100.28066509  .00027998  00000+0  95180-3 0  9994
2 48382  53.1607 201.0513 0001051  11.0858 349.0165 15.30269865272061
STARLINK-2598           
1 48385U 21038AJ  26099.76602790  .00011446  00000+0  39788-3 0  9998
2 48385  53.1574 201.0164 0001015  70.4161 289.6949 15.30207758273248
STARLINK-2606           
1 48386U 21038AK  26099.55299516  .00131980  00000+0  43259-2 0  9997
2 48386  53.1608 202.2022 0001047 355.2437   4.8554 15.30673605271973
STARLINK-2594           
1 48388U 21038AM  26100.01251027  .00004774  00000+0  17307-3 0  9994
2 48388  53.1607 199.8302 0001504  31.2052 328.9038 15.30223675272053
